NOAA 15                 
1 25338U 98030A   23081.52024154  .00000290  00000+0  13898-3 0  9990
2 25338  98.6164 112.0203 0010045 200.7251 159.3523 14.26272714292909
DMSP 5D-3 F15 (USA 147) 
1 25991U 99067A   23081.49830140  .00000356  00000+0  20101-3 0  9990
2 25991  99.0711  83.0970 0011029 118.1059  45.3183 14.16688379203158
DMSP 5D-3 F16 (USA 172) 
1 28054U 03048A   23081.53963803  .00000262  00000+0  16254-3 0  9995
2 28054  99.0107  79.0881 0006274 249.5019 219.1746 14.13776903  2316
NOAA 18                 
1 28654U 05018A   23081.38924744  .00000307  00000+0  18858-3 0  9996
2 28654  98.9153 156.1851 0013267 264.4658  95.5001 14.12892884919313
METEOSAT-9 (MSG-2)      
1 28912U 05049B   23080.62402385  .00000115  00000+0  00000+0 0  9998
2 28912   6.6480  64.3985 0002043 177.0153 207.7941  1.00274385 63184
EWS-G1 (GOES 13)        
1 29155U 06018A   23080.12529115  .00000020  00000+0  00000+0 0  9996
2 29155   1.3041  92.1543 0002530 179.2425  13.4692  1.00275240 31502
DMSP 5D-3 F17 (USA 191) 
1 29522U 06050A   23081.49457524  .00000305  00000+0  18256-3 0  9997
2 29522  98.7591  96.2094 0009877 183.1695 176.9417 14.14213478845204
FENGYUN 3A              
1 32958U 08026A   23081.47302397  .00000288  00000+0  15893-3 0  9998
2 32958  98.5455  38.3338 0007790 304.7681  55.2761 14.18832073767750
FENGYUN 2E              
1 33463U 08066A   23081.49255683 -.00000212  00000+0  00000+0 0  9999
2 33463   6.5241  63.5765 0002576 326.3575  53.5910  1.00267331 52230
NOAA 19                 
1 33591U 09005A   23081.49378659  .00000294  00000+0  18307-3 0  9996
2 33591  99.1119 125.9922 0014767 125.1993 235.0564 14.12714832727709
GOES 14                 
1 35491U 09033A   23081.27420299 -.00000085  00000+0  00000+0 0  9998
2 35491   0.1321 120.9516 0005181 279.6367 129.6445  1.00269478 50294
METEOR-M 1              
1 35865U 09049A   23081.46839980  .00000296  00000+0  15219-3 0  9997
2 35865  98.5706  48.5525 0003143 121.4796 238.6690 14.22455586701200
DMSP 5D-3 F18 (USA 210) 
1 35951U 09057A   23081.57628665  .00000483  00000+0  27871-3 0  9995
2 35951  98.7600  59.6275 0011621  20.8117 339.3527 14.13700200692400
GOES 15                 
1 36411U 10008A   23081.22032424  .00000038  00000+0  00000+0 0  9996
2 36411   0.1488  94.4569 0001568 358.2803  38.1528  1.00261278 47795
COMS 1                  
1 36744U 10032A   23080.35366288 -.00000361  00000+0  00000+0 0  9993
2 36744   1.7640  90.1968 0000807 281.4446  62.4213  1.00271053 39213
FENGYUN 3B              
1 37214U 10059A   23081.52790105  .00000174  00000+0  11495-3 0  9999
2 37214  99.0901  97.4073 0021162 291.5739  68.3173 14.14314405640268
SUOMI NPP               
1 37849U 11061A   23081.48424400  .00000181  00000+0  10696-3 0  9994
2 37849  98.7621  21.5561 0001096 104.7987   6.0988 14.19527573590636
FENGYUN 2F              
1 38049U 12002A   23081.49761240 -.00000368  00000+0  00000+0 0  9992
2 38049   4.4740  77.4282 0000372 203.8931 189.5173  1.00264607 41031
METEOSAT-10 (MSG-3)     
1 38552U 12035B   23080.75817049 -.00000024  00000+0  00000+0 0  9993
2 38552   2.0004  53.3164 0000649 258.3818 140.0314  1.00267730 38995
METOP-B                 
1 38771U 12049A   23081.47414352  .00000229  00000+0  12447-3 0  9999
2 38771  98.6889 142.2587 0000638  90.1182  97.5617 14.21509253545228
FENGYUN 3C              
1 39260U 13052A   23081.54305101  .00000230  00000+0  13747-3 0  9993
2 39260  98.4357 100.2624 0010884 186.9804 173.1222 14.16009419491276
METEOR-M 2              
1 40069U 14037A   23081.50800024  .00000132  00000+0  80312-4 0  9990
2 40069  98.4267  91.4984 0004798 225.5026 134.5765 14.20757998451342
HIMAWARI-8              
1 40267U 14060A   23081.34601796 -.00000292  00000+0  00000+0 0  9992
2 40267   0.0155 173.3268 0000906 225.8587  45.5995  1.00269137 31004
FENGYUN 2G              
1 40367U 14090A   23080.84990309 -.00000318  00000+0  00000+0 0  9990
2 40367   2.6335  86.5767 0000468 143.9278 354.3365  1.00271565 30135
METEOSAT-11 (MSG-4)     
1 40732U 15034A   23080.75843198 -.00000017  00000+0  00000+0 0  9994
2 40732   0.4885  22.0509 0000517  30.5509  39.8309  1.00273946 28156
ELEKTRO-L 2             
1 41105U 15074A   23080.89880252 -.00000130  00000+0  00000+0 0  9996
2 41105   3.6860  84.8564 0000678 218.0759 185.2480  1.00270633 26653
HIMAWARI-9              
1 41836U 16064A   23080.80490750 -.00000292  00000+0  00000+0 0  9997
2 41836   0.0207 135.4517 0000992 223.3283 250.7791  1.00271618 23329
GOES 16                 
1 41866U 16071A   23081.24902199 -.00000264  00000+0  00000+0 0  9991
2 41866   0.0798 288.9425 0000447  77.2281 187.7480  1.00272379 23237
FENGYUN 4A              
1 41882U 16077A   23078.89771693 -.00000348  00000+0  00000+0 0  9998
2 41882   0.2203  85.0681 0004440 353.1657 166.7228  1.00275635 23097
CYGFM05                 
1 41884U 16078A   23080.25784716  .00008405  00000+0  39305-3 0  9999
2 41884  34.9546 275.3292 0013974  47.9085 312.2814 15.18960252346851
CYGFM04                 
1 41885U 16078B   23081.19441700  .00008970  00000+0  41218-3 0  9990
2 41885  34.9477 257.0869 0012182  76.4829 283.7240 15.19570532347210
CYGFM02                 
1 41886U 16078C   23081.17805949  .00008713  00000+0  39987-3 0  9993
2 41886  34.9567 259.4860 0012829  69.6106 290.5984 15.19612226347205
CYGFM01                 
1 41887U 16078D   23080.82220002  .00007861  00000+0  36990-3 0  9990
2 41887  34.9513 274.6549 0014234  52.0622 308.1375 15.18754954346888
CYGFM08                 
1 41888U 16078E   23081.50560340  .00009016  00000+0  41739-3 0  9990
2 41888  34.9485 261.6611 0013200  72.9877 287.2281 15.19303131347161
CYGFM07                 
1 41890U 16078G   23081.47750112  .00009382  00000+0  42926-3 0  9992
2 41890  34.9504 255.0775 0011732  76.9139 283.2883 15.19716520347251
CYGFM03                 
1 41891U 16078H   23080.49412426  .00008484  00000+0  39041-3 0  9993
2 41891  34.9535 261.8253 0011326  65.3569 294.8322 15.19541698347090
FENGYUN 3D              
1 43010U 17072A   23081.48699212  .00000251  00000+0  14119-3 0  9996
2 43010  98.8511  30.1594 0001433 154.4053 205.7187 14.19167645277209
NOAA 20                 
1 43013U 17073A   23081.49657422  .00000176  00000+0  10413-3 0  9997
2 43013  98.7457  21.0714 0001193  61.5245 298.6051 14.19526403276679
GOES 17                 
1 43226U 18022A   23081.20188652 -.00000106  00000+0  00000+0 0  9992
2 43226   0.0113  78.8000 0001580 318.8474 109.7206  1.00269822 18572
FENGYUN 2H              
1 43491U 18050A   23080.74633000 -.00000140  00000+0  00000+0 0  9995
2 43491   1.8530  92.3719 0001962  55.8801  18.4015  1.00267062 17579
METOP-C                 
1 43689U 18087A   23081.40366828  .00000220  00000+0  12044-3 0  9992
2 43689  98.6934 142.2821 0002202 332.4399  27.6661 14.21512605226791
GEO-KOMPSAT-2A          
1 43823U 18100A   23080.92730542 -.00000361  00000+0  00000+0 0  9994
2 43823   0.0443  49.0204 0001632  10.2634 221.9397  1.00269427 15796
METEOR-M2 2             
1 44387U 19038A   23081.52191946  .00000156  00000+0  87769-4 0  9990
2 44387  98.7644  45.6462 0001483 143.2073 216.9206 14.23764248192974
FENGYUN 3E              
1 49008U 21062A   23081.53597216  .00000101  00000+0  68571-4 0  9996
2 49008  98.7217  84.2258 0000703 264.8023  95.3074 14.19769438 88771
GOES 18                 
1 51850U 22021A   23081.51976953  .00000081  00000+0  00000+0 0  9992
2 51850   0.0129   3.3139 0000324 320.8570 265.6717  1.00272072  3947
NOAA 21 (JPSS-2)        
1 54234U 22150A   23080.87930031  .00000197  00000+0  11403-3 0  9990
2 54234  98.7096  20.2302 0001070  76.9011 283.2285 14.19565842 18666
METEOSAT-12             
1 54743U 22170C   23080.96993892 -.00000047  00000+0  00000+0 0  9993
2 54743   0.7813 302.3938 0003120 109.7204 112.8577  1.00275431  1118
